[{"OBJECT_NAME":"QIANFAN-69","OBJECT_ID":"2025-016Q","EPOCH":"2026-03-03T22:41:56.262912","MEAN_MOTION":13.51005172,"ECCENTRICITY":0.0017922,"INCLINATION":88.9667,"RA_OF_ASC_NODE":94.5477,"ARG_OF_PERICENTER":108.9511,"MEAN_ANOMALY":251.3584,"EPHEMERIS_TYPE":0,"CLASSIFICATION_TYPE":"U","NORAD_CAT_ID":62799,"ELEMENT_SET_NO":999,"REV_AT_EPOCH":5824,"BSTAR":0.00010643094,"MEAN_MOTION_DOT":8.1e-7,"MEAN_MOTION_DDOT":0},{"OBJECT_NAME":"QIANFAN-70","OBJECT_ID":"2025-016R","EPOCH":"2026-03-03T21:18:54.837216","MEAN_MOTION":13.50996972,"ECCENTRICITY":0.00175618,"INCLINATION":88.9689,"RA_OF_ASC_NODE":94.7094,"ARG_OF_PERICENTER":100.6111,"MEAN_ANOMALY":259.702,"EPHEMERIS_TYPE":0,"CLASSIFICATION_TYPE":"U","NORAD_CAT_ID":62800,"ELEMENT_SET_NO":999,"REV_AT_EPOCH":5819,"BSTAR":8.0991394e-5,"MEAN_MOTION_DOT":6.5e-7,"MEAN_MOTION_DDOT":0},{"OBJECT_NAME":"QIANFAN-71","OBJECT_ID":"2025-016S","EPOCH":"2026-03-03T21:12:54.392832","MEAN_MOTION":13.50996506,"ECCENTRICITY":0.00178022,"INCLINATION":88.9683,"RA_OF_ASC_NODE":94.6844,"ARG_OF_PERICENTER":112.2319,"MEAN_ANOMALY":248.0723,"EPHEMERIS_TYPE":0,"CLASSIFICATION_TYPE":"U","NORAD_CAT_ID":62801,"ELEMENT_SET_NO":999,"REV_AT_EPOCH":5819,"BSTAR":9.5818015e-5,"MEAN_MOTION_DOT":7.4e-7,"MEAN_MOTION_DDOT":0},{"OBJECT_NAME":"QIANFAN-72","OBJECT_ID":"2025-016T","EPOCH":"2026-03-03T21:36:37.157184","MEAN_MOTION":13.50996173,"ECCENTRICITY":0.00209867,"INCLINATION":88.9673,"RA_OF_ASC_NODE":94.6882,"ARG_OF_PERICENTER":119.0265,"MEAN_ANOMALY":241.2992,"EPHEMERIS_TYPE":0,"CLASSIFICATION_TYPE":"U","NORAD_CAT_ID":62802,"ELEMENT_SET_NO":999,"REV_AT_EPOCH":5818,"BSTAR":7.4977078e-5,"MEAN_MOTION_DOT":6.1e-7,"MEAN_MOTION_DDOT":0},{"OBJECT_NAME":"QIANFAN-73","OBJECT_ID":"2025-046A","EPOCH":"2026-03-03T22:15:17.722080","MEAN_MOTION":13.50997838,"ECCENTRICITY":0.00131313,"INCLINATION":88.9763,"RA_OF_ASC_NODE":311.6386,"ARG_OF_PERICENTER":248.5991,"MEAN_ANOMALY":111.3759,"EPHEMERIS_TYPE":0,"CLASSIFICATION_TYPE":"U","NORAD_CAT_ID":63159,"ELEMENT_SET_NO":999,"REV_AT_EPOCH":5837,"BSTAR":0.00027459479,"MEAN_MOTION_DOT":1.89e-6,"MEAN_MOTION_DDOT":0},{"OBJECT_NAME":"QIANFAN-74","OBJECT_ID":"2025-046B","EPOCH":"2026-03-03T23:38:19.936608","MEAN_MOTION":13.5099767,"ECCENTRICITY":0.00018911,"INCLINATION":88.9763,"RA_OF_ASC_NODE":311.5214,"ARG_OF_PERICENTER":77.9442,"MEAN_ANOMALY":282.1921,"EPHEMERIS_TYPE":0,"CLASSIFICATION_TYPE":"U","NORAD_CAT_ID":63160,"ELEMENT_SET_NO":999,"REV_AT_EPOCH":5844,"BSTAR":0.00030087139,"MEAN_MOTION_DOT":2.06e-6,"MEAN_MOTION_DDOT":0},{"OBJECT_NAME":"QIANFAN-75","OBJECT_ID":"2025-046C","EPOCH":"2026-03-03T23:19:48.719424","MEAN_MOTION":13.51001426,"ECCENTRICITY":0.00143243,"INCLINATION":88.9765,"RA_OF_ASC_NODE":311.7576,"ARG_OF_PERICENTER":252.142,"MEAN_ANOMALY":107.8169,"EPHEMERIS_TYPE":0,"CLASSIFICATION_TYPE":"U","NORAD_CAT_ID":63161,"ELEMENT_SET_NO":999,"REV_AT_EPOCH":5831,"BSTAR":0.00029527768,"MEAN_MOTION_DOT":2.03e-6,"MEAN_MOTION_DDOT":0},{"OBJECT_NAME":"QIANFAN-76","OBJECT_ID":"2025-046D","EPOCH":"2026-03-03T23:14:32.737344","MEAN_MOTION":13.51013936,"ECCENTRICITY":0.0011876,"INCLINATION":88.9764,"RA_OF_ASC_NODE":311.7379,"ARG_OF_PERICENTER":252.8119,"MEAN_ANOMALY":107.1732,"EPHEMERIS_TYPE":0,"CLASSIFICATION_TYPE":"U","NORAD_CAT_ID":63162,"ELEMENT_SET_NO":999,"REV_AT_EPOCH":5832,"BSTAR":0.00034266135,"MEAN_MOTION_DOT":2.33e-6,"MEAN_MOTION_DDOT":0},{"OBJECT_NAME":"QIANFAN-77","OBJECT_ID":"2025-046E","EPOCH":"2026-03-03T23:03:13.814784","MEAN_MOTION":13.96173337,"ECCENTRICITY":0.00142922,"INCLINATION":88.976,"RA_OF_ASC_NODE":309.0784,"ARG_OF_PERICENTER":179.7797,"MEAN_ANOMALY":180.3388,"EPHEMERIS_TYPE":0,"CLASSIFICATION_TYPE":"U","NORAD_CAT_ID":63163,"ELEMENT_SET_NO":999,"REV_AT_EPOCH":5978,"BSTAR":0.00032479139,"MEAN_MOTION_DOT":4.6e-6,"MEAN_MOTION_DDOT":0},{"OBJECT_NAME":"QIANFAN-78","OBJECT_ID":"2025-046F","EPOCH":"2026-03-03T22:27:09.139680","MEAN_MOTION":13.50997907,"ECCENTRICITY":0.00132005,"INCLINATION":88.9763,"RA_OF_ASC_NODE":311.6046,"ARG_OF_PERICENTER":255.6792,"MEAN_ANOMALY":104.2894,"EPHEMERIS_TYPE":0,"CLASSIFICATION_TYPE":"U","NORAD_CAT_ID":63164,"ELEMENT_SET_NO":999,"REV_AT_EPOCH":5839,"BSTAR":0.000317792,"MEAN_MOTION_DOT":2.17e-6,"MEAN_MOTION_DDOT":0},{"OBJECT_NAME":"QIANFAN-79","OBJECT_ID":"2025-046G","EPOCH":"2026-03-03T23:08:50.837856","MEAN_MOTION":13.51008112,"ECCENTRICITY":0.00130569,"INCLINATION":88.9767,"RA_OF_ASC_NODE":311.7123,"ARG_OF_PERICENTER":253.808,"MEAN_ANOMALY":106.1634,"EPHEMERIS_TYPE":0,"CLASSIFICATION_TYPE":"U","NORAD_CAT_ID":63165,"ELEMENT_SET_NO":999,"REV_AT_EPOCH":5834,"BSTAR":0.00029453526,"MEAN_MOTION_DOT":2.02e-6,"MEAN_MOTION_DDOT":0},{"OBJECT_NAME":"QIANFAN-80","OBJECT_ID":"2025-046H","EPOCH":"2026-03-03T23:32:17.865312","MEAN_MOTION":13.50997741,"ECCENTRICITY":0.00118945,"INCLINATION":88.9764,"RA_OF_ASC_NODE":311.4153,"ARG_OF_PERICENTER":258.5439,"MEAN_ANOMALY":101.4376,"EPHEMERIS_TYPE":0,"CLASSIFICATION_TYPE":"U","NORAD_CAT_ID":63166,"ELEMENT_SET_NO":999,"REV_AT_EPOCH":5850,"BSTAR":0.00028879377,"MEAN_MOTION_DOT":1.98e-6,"MEAN_MOTION_DDOT":0},{"OBJECT_NAME":"QIANFAN-81","OBJECT_ID":"2025-046J","EPOCH":"2026-03-03T23:00:48.774240","MEAN_MOTION":13.50983625,"ECCENTRICITY":0.00129462,"INCLINATION":88.9764,"RA_OF_ASC_NODE":311.4854,"ARG_OF_PERICENTER":246.2332,"MEAN_ANOMALY":113.7462,"EPHEMERIS_TYPE":0,"CLASSIFICATION_TYPE":"U","NORAD_CAT_ID":63167,"ELEMENT_SET_NO":999,"REV_AT_EPOCH":5845,"BSTAR":0.00028589214,"MEAN_MOTION_DOT":1.97e-6,"MEAN_MOTION_DDOT":0},{"OBJECT_NAME":"QIANFAN-82","OBJECT_ID":"2025-046K","EPOCH":"2026-03-03T22:03:29.104704","MEAN_MOTION":13.5099901,"ECCENTRICITY":0.00110121,"INCLINATION":88.9764,"RA_OF_ASC_NODE":311.5335,"ARG_OF_PERICENTER":254.3553,"MEAN_ANOMALY":105.6383,"EPHEMERIS_TYPE":0,"CLASSIFICATION_TYPE":"U","NORAD_CAT_ID":63168,"ELEMENT_SET_NO":999,"REV_AT_EPOCH":5843,"BSTAR":0.00024962321,"MEAN_MOTION_DOT":1.73e-6,"MEAN_MOTION_DDOT":0},{"OBJECT_NAME":"QIANFAN-83","OBJECT_ID":"2025-046L","EPOCH":"2026-03-03T21:05:02.520096","MEAN_MOTION":13.62020031,"ECCENTRICITY":0.00124009,"INCLINATION":88.9764,"RA_OF_ASC_NODE":311.1547,"ARG_OF_PERICENTER":232.2212,"MEAN_ANOMALY":127.7823,"EPHEMERIS_TYPE":0,"CLASSIFICATION_TYPE":"U","NORAD_CAT_ID":63169,"ELEMENT_SET_NO":999,"REV_AT_EPOCH":5864,"BSTAR":0.0003415318,"MEAN_MOTION_DOT":2.75e-6,"MEAN_MOTION_DDOT":0},{"OBJECT_NAME":"QIANFAN-84","OBJECT_ID":"2025-046M","EPOCH":"2026-03-03T22:43:29.293248","MEAN_MOTION":13.5096094,"ECCENTRICITY":0.00140326,"INCLINATION":88.9761,"RA_OF_ASC_NODE":311.6627,"ARG_OF_PERICENTER":250.409,"MEAN_ANOMALY":109.5546,"EPHEMERIS_TYPE":0,"CLASSIFICATION_TYPE":"U","NORAD_CAT_ID":63170,"ELEMENT_SET_NO":999,"REV_AT_EPOCH":5836,"BSTAR":-0.00013687171,"MEAN_MOTION_DOT":-7.6e-7,"MEAN_MOTION_DDOT":0},{"OBJECT_NAME":"QIANFAN-85","OBJECT_ID":"2025-046N","EPOCH":"2026-03-03T22:39:00.715392","MEAN_MOTION":13.51001821,"ECCENTRICITY":0.00114332,"INCLINATION":88.9764,"RA_OF_ASC_NODE":311.5349,"ARG_OF_PERICENTER":252.9797,"MEAN_ANOMALY":107.0101,"EPHEMERIS_TYPE":0,"CLASSIFICATION_TYPE":"U","NORAD_CAT_ID":63171,"ELEMENT_SET_NO":999,"REV_AT_EPOCH":5843,"BSTAR":0.00030700509,"MEAN_MOTION_DOT":2.1e-6,"MEAN_MOTION_DDOT":0}]
