QIANFAN-69              
1 62799U 25016Q   26062.94579008  .00000081  00000+0  10643-3 0  9990
2 62799  88.9667  94.5477 0017922 108.9511 251.3584 13.51005172 58243
QIANFAN-70              
1 62800U 25016R   26062.88813469  .00000065  00000+0  80991-4 0  9994
2 62800  88.9689  94.7094 0017561 100.6111 259.7020 13.50996972 58198
QIANFAN-71              
1 62801U 25016S   26062.88396288  .00000074  00000+0  95818-4 0  9994
2 62801  88.9683  94.6844 0017802 112.2319 248.0723 13.50996506 58196
QIANFAN-72              
1 62802U 25016T   26062.90043006  .00000061  00000+0  74977-4 0  9994
2 62802  88.9673  94.6882 0020986 119.0265 241.2992 13.50996173 58182
QIANFAN-73              
1 63159U 25046A   26062.92728845  .00000189  00000+0  27459-3 0  9999
2 63159  88.9763 311.6386 0013131 248.5991 111.3759 13.50997838 58375
QIANFAN-74              
1 63160U 25046B   26062.98495297  .00000206  00000+0  30087-3 0  9990
2 63160  88.9763 311.5214 0001891  77.9442 282.1921 13.50997670 58441
QIANFAN-75              
1 63161U 25046C   26062.97209166  .00000203  00000+0  29528-3 0  9993
2 63161  88.9765 311.7576 0014324 252.1420 107.8169 13.51001426 58314
QIANFAN-76              
1 63162U 25046D   26062.96843446  .00000233  00000+0  34266-3 0  9996
2 63162  88.9764 311.7379 0011876 252.8119 107.1732 13.51013936 58325
QIANFAN-77              
1 63163U 25046E   26062.96057656  .00000460  00000+0  32479-3 0  9993
2 63163  88.9760 309.0784 0014292 179.7797 180.3388 13.96173337 59788
QIANFAN-78              
1 63164U 25046F   26062.93552245  .00000217  00000+0  31779-3 0  9997
2 63164  88.9763 311.6046 0013200 255.6792 104.2894 13.50997907 58399
QIANFAN-79              
1 63165U 25046G   26062.96447729  .00000202  00000+0  29454-3 0  9992
2 63165  88.9767 311.7123 0013056 253.8080 106.1634 13.51008112 58340
QIANFAN-80              
1 63166U 25046H   26062.98076233  .00000198  00000+0  28879-3 0  9997
2 63166  88.9764 311.4153 0011894 258.5439 101.4376 13.50997741 58509
QIANFAN-81              
1 63167U 25046J   26062.95889785  .00000197  00000+0  28589-3 0  9996
2 63167  88.9764 311.4854 0012946 246.2332 113.7462 13.50983625 58455
QIANFAN-82              
1 63168U 25046K   26062.91908686  .00000173  00000+0  24962-3 0  9990
2 63168  88.9764 311.5335 0011012 254.3553 105.6383 13.50999010 58434
QIANFAN-83              
1 63169U 25046L   26062.87850139  .00000275  00000+0  34153-3 0  9991
2 63169  88.9764 311.1547 0012400 232.2212 127.7823 13.62020031 58643
QIANFAN-84              
1 63170U 25046M   26062.94686682 -.00000076  00000+0 -13687-3 0  9991
2 63170  88.9761 311.6627 0014032 250.4090 109.5546 13.50960940 58363
QIANFAN-85              
1 63171U 25046N   26062.94375828  .00000210  00000+0  30701-3 0  9993
2 63171  88.9764 311.5349 0011433 252.9797 107.0101 13.51001821 58433
